{
  "norad_id": 52337,
  "name": "STARLINK-3797",
  "history": [
    {
      "epoch": "2026-04-15T05:10:38.750592Z",
      "apogee_km": 540.736878596359,
      "perigee_km": 538.7555968370771,
      "latitude_deg": 4.586549521700348e-05,
      "longitude_deg": 124.10658708174644,
      "height_km": 540.5451391717919,
      "semi_major_axis_km": 6917.883237716718,
      "eccentricity": 0.0001432,
      "inclination_deg": 53.2186,
      "raan_deg": 45.149,
      "arg_perigee_deg": 84.3903,
      "mean_anomaly_deg": 275.7253,
      "mean_motion_rev_day": 15.08839068
    },
    {
      "epoch": "2026-04-16T05:01:25.584960Z",
      "apogee_km": 540.7500115589246,
      "perigee_km": 538.7216912388931,
      "latitude_deg": -4.9066568480411556e-05,
      "longitude_deg": 120.97154076361448,
      "height_km": 540.552774210852,
      "semi_major_axis_km": 6917.872851398908,
      "eccentricity": 0.0001466,
      "inclination_deg": 53.2184,
      "raan_deg": 40.6885,
      "arg_perigee_deg": 85.546,
      "mean_anomaly_deg": 274.5699,
      "mean_motion_rev_day": 15.08842466
    },
    {
      "epoch": "2026-04-17T22:21:27.475200Z",
      "apogee_km": 540.7929729886446,
      "perigee_km": 538.7087517334721,
      "latitude_deg": 3.286944400730813e-06,
      "longitude_deg": -148.46491498449225,
      "height_km": 540.7487416389556,
      "semi_major_axis_km": 6917.887862361058,
      "eccentricity": 0.00015064,
      "inclination_deg": 53.2185,
      "raan_deg": 32.9574,
      "arg_perigee_deg": 95.631,
      "mean_anomaly_deg": 264.4854,
      "mean_motion_rev_day": 15.08837555
    },
    {
      "epoch": "2026-04-18T04:43:00.041664Z",
      "apogee_km": 540.8387576168507,
      "perigee_km": 538.653675024143,
      "latitude_deg": -5.33486522470211e-06,
      "longitude_deg": 114.69932833355544,
      "height_km": 540.6701286384782,
      "semi_major_axis_km": 6917.883216320496,
      "eccentricity": 0.00015793,
      "inclination_deg": 53.2185,
      "raan_deg": 31.7685,
      "arg_perigee_deg": 91.4893,
      "mean_anomaly_deg": 268.628,
      "mean_motion_rev_day": 15.08839075
    },
    {
      "epoch": "2026-04-19T10:55:19.488288Z",
      "apogee_km": 540.6608182346608,
      "perigee_km": 538.8425203768202,
      "latitude_deg": -1.5785849242607832e-05,
      "longitude_deg": 14.726300609472418,
      "height_km": 540.7256266466496,
      "semi_major_axis_km": 6917.88866930574,
      "eccentricity": 0.00013142,
      "inclination_deg": 53.2179,
      "raan_deg": 26.117,
      "arg_perigee_deg": 94.9298,
      "mean_anomaly_deg": 265.1844,
      "mean_motion_rev_day": 15.08837291
    },
    {
      "epoch": "2026-04-20T10:46:07.628160Z",
      "apogee_km": 540.8706220880267,
      "perigee_km": 538.6687907415089,
      "latitude_deg": -1.906443908070041e-05,
      "longitude_deg": 11.588764298737965,
      "height_km": 540.6070403284538,
      "semi_major_axis_km": 6917.9067064147675,
      "eccentricity": 0.00015914,
      "inclination_deg": 53.2188,
      "raan_deg": 21.6594,
      "arg_perigee_deg": 86.9696,
      "mean_anomaly_deg": 273.1478,
      "mean_motion_rev_day": 15.0883139
    },
    {
      "epoch": "2026-04-21T10:36:54.140256Z",
      "apogee_km": 540.8543885520148,
      "perigee_km": 538.6167334934262,
      "latitude_deg": 2.3799360684433123e-06,
      "longitude_deg": 8.455046638574682,
      "height_km": 540.5502161816402,
      "semi_major_axis_km": 6917.87256102272,
      "eccentricity": 0.00016173,
      "inclination_deg": 53.2185,
      "raan_deg": 17.1988,
      "arg_perigee_deg": 85.8578,
      "mean_anomaly_deg": 274.2599,
      "mean_motion_rev_day": 15.08842561
    },
    {
      "epoch": "2026-04-22T02:30:45.137376Z",
      "apogee_km": 540.7962005826621,
      "perigee_km": 538.6693706957649,
      "latitude_deg": 3.743499811380835e-05,
      "longitude_deg": 126.36569589475022,
      "height_km": 540.5315888394654,
      "semi_major_axis_km": 6917.869785639214,
      "eccentricity": 0.00015372,
      "inclination_deg": 53.218,
      "raan_deg": 14.2248,
      "arg_perigee_deg": 84.7813,
      "mean_anomaly_deg": 275.3355,
      "mean_motion_rev_day": 15.08843469
    },
    {
      "epoch": "2026-04-23T00:46:09.733440Z",
      "apogee_km": 540.7375211297322,
      "perigee_km": 538.7544407944088,
      "latitude_deg": 4.912552108953782e-05,
      "longitude_deg": 147.42796312955815,
      "height_km": 540.623710420999,
      "semi_major_axis_km": 6917.88298096207,
      "eccentricity": 0.00014333,
      "inclination_deg": 53.2211,
      "raan_deg": 10.0536,
      "arg_perigee_deg": 88.9447,
      "mean_anomaly_deg": 271.171,
      "mean_motion_rev_day": 15.08839152
    },
    {
      "epoch": "2026-04-24T19:41:34.489248Z",
      "apogee_km": 540.8083304989905,
      "perigee_km": 538.6956072079038,
      "latitude_deg": -6.98165903173488e-06,
      "longitude_deg": -146.21003752583096,
      "height_km": 540.5346273192675,
      "semi_major_axis_km": 6917.888968853447,
      "eccentricity": 0.0001527,
      "inclination_deg": 53.2179,
      "raan_deg": 2.0316,
      "arg_perigee_deg": 83.8657,
      "mean_anomaly_deg": 276.2509,
      "mean_motion_rev_day": 15.08837193
    },
    {
      "epoch": "2026-04-25T19:32:21.158592Z",
      "apogee_km": 540.8169017076507,
      "perigee_km": 538.6626748757762,
      "latitude_deg": -2.842490671554768e-05,
      "longitude_deg": -149.3421418975608,
      "height_km": 540.7625793009294,
      "semi_major_axis_km": 6917.876788291713,
      "eccentricity": 0.0001557,
      "inclination_deg": 53.2187,
      "raan_deg": 357.5733,
      "arg_perigee_deg": 96.7823,
      "mean_anomaly_deg": 263.3346,
      "mean_motion_rev_day": 15.08841178
    },
    {
      "epoch": "2026-04-26T22:33:55.154016Z",
      "apogee_km": 540.813765932,
      "perigee_km": 538.7058827696201,
      "latitude_deg": -4.066856713192971e-05,
      "longitude_deg": 159.09867901855355,
      "height_km": 540.6047350599338,
      "semi_major_axis_km": 6917.89682435081,
      "eccentricity": 0.00015235,
      "inclination_deg": 53.2182,
      "raan_deg": 352.5157,
      "arg_perigee_deg": 87.2449,
      "mean_anomaly_deg": 272.8717,
      "mean_motion_rev_day": 15.08834623
    },
    {
      "epoch": "2026-04-27T19:13:56.043840Z",
      "apogee_km": 540.7463262903702,
      "perigee_km": 538.7581249269306,
      "latitude_deg": 1.571182918690846e-05,
      "longitude_deg": -155.619245962927,
      "height_km": 540.6416573311097,
      "semi_major_axis_km": 6917.88922560865,
      "eccentricity": 0.0001437,
      "inclination_deg": 53.2183,
      "raan_deg": 348.6502,
      "arg_perigee_deg": 89.6392,
      "mean_anomaly_deg": 270.4765,
      "mean_motion_rev_day": 15.08837109
    },
    {
      "epoch": "2026-04-28T20:40:06.377952Z",
      "apogee_km": 540.7139028444626,
      "perigee_km": 538.8017967079841,
      "latitude_deg": -6.363816759581825e-06,
      "longitude_deg": 177.03625182168153,
      "height_km": 540.584893569281,
      "semi_major_axis_km": 6917.894849776223,
      "eccentricity": 0.0001382,
      "inclination_deg": 53.2183,
      "raan_deg": 343.8934,
      "arg_perigee_deg": 85.8773,
      "mean_anomaly_deg": 274.2377,
      "mean_motion_rev_day": 15.08835269
    },
    {
      "epoch": "2026-04-29T20:30:53.449920Z",
      "apogee_km": 540.7092680198803,
      "perigee_km": 538.7930130049572,
      "latitude_deg": -4.415479525667514e-05,
      "longitude_deg": 173.90085362711716,
      "height_km": 540.5258181722256,
      "semi_major_axis_km": 6917.888140512418,
      "eccentricity": 0.0001385,
      "inclination_deg": 53.2184,
      "raan_deg": 339.4335,
      "arg_perigee_deg": 82.7374,
      "mean_anomaly_deg": 277.3775,
      "mean_motion_rev_day": 15.08837464
    }
  ]
}